[{"OBJECT_NAME":"GLOBALSTAR M090","OBJECT_ID":"2011-080E","EPOCH":"2026-03-09T18:02:24.533376","MEAN_MOTION":12.62271909,"ECCENTRICITY":9.451e-5,"INCLINATION":52.011,"RA_OF_ASC_NODE":271.101,"ARG_OF_PERICENTER":93.3649,"MEAN_ANOMALY":347.2221,"EPHEMERIS_TYPE":0,"CLASSIFICATION_TYPE":"U","NORAD_CAT_ID":38044,"ELEMENT_SET_NO":999,"REV_AT_EPOCH":65715,"BSTAR":0.00010518372,"MEAN_MOTION_DOT":-8.5e-7,"MEAN_MOTION_DDOT":0},{"OBJECT_NAME":"COSMOS 2040","OBJECT_ID":"1989-074C","EPOCH":"2026-03-09T18:01:38.500320","MEAN_MOTION":12.62624507,"ECCENTRICITY":0.00048013,"INCLINATION":82.5869,"RA_OF_ASC_NODE":310.8273,"ARG_OF_PERICENTER":178.1397,"MEAN_ANOMALY":249.5143,"EPHEMERIS_TYPE":0,"CLASSIFICATION_TYPE":"U","NORAD_CAT_ID":20234,"ELEMENT_SET_NO":999,"REV_AT_EPOCH":68108,"BSTAR":6.1128721e-5,"MEAN_MOTION_DOT":2.2e-7,"MEAN_MOTION_DDOT":0}]
